start=new Date('2021-11-04T00:00:00.000Z').valueOf();
sats=[{"MEAN_MOTION":"15.29702889","FILE":"3200165","OBJECT_ID":"2021-005R","CLASSIFICATION_TYPE":"U","OBJECT_NAME":"STARLINK-2079","DECAY_DATE":null,"BSTAR":"0.02037600000000","ARG_OF_PERICENTER":"34.6845","NORAD_CAT_ID":"47364","CENTER_NAME":"EARTH","COUNTRY_CODE":"US","MEAN_ELEMENT_THEORY":"SGP4","TIME_SYSTEM":"UTC","RA_OF_ASC_NODE":"344.0844","TLE_LINE1":"1 47364U 21005R   21307.89877793  .00639387  00000-0  20376-1 0  9998","APOAPSIS":"478.014","PERIOD":"94.136","EPHEMERIS_TYPE":"0","TLE_LINE2":"2 47364  53.0565 344.0844 0001914  34.6845 325.4278 15.29702889 43887","RCS_SIZE":"LARGE","GP_ID":"188859620","SITE":"AFETR","MEAN_ANOMALY":"325.4278","LAUNCH_DATE":"2021-01-20","ECCENTRICITY":"0.00019140","MEAN_MOTION_DDOT":"0.0000000000000","PERIAPSIS":"475.390","ELEMENT_SET_NO":"999","EPOCH":"2021-11-03T21:34:14.413152","INCLINATION":"53.0565","OBJECT_TYPE":"PAYLOAD","SEMIMAJOR_AXIS":"6854.837","MEAN_MOTION_DOT":"0.00639387","REF_FRAME":"TEME","REV_AT_EPOCH":"4388"},{"RCS_SIZE":"LARGE","TLE_LINE2":"2 47365  53.0492 238.6672 0005211 291.3389  68.7073 15.73217300 45311","GP_ID":"188827116","SITE":"AFETR","PERIOD":"91.532","EPHEMERIS_TYPE":"0","TLE_LINE1":"1 47365U 21005S   21307.30758419  .00031695  00000-0  22906-3 0  9999","APOAPSIS":"353.217","RA_OF_ASC_NODE":"238.6672","TIME_SYSTEM":"UTC","MEAN_ELEMENT_THEORY":"SGP4","COUNTRY_CODE":"US","CENTER_NAME":"EARTH","BSTAR":"0.00022906000000","ARG_OF_PERICENTER":"291.3389","NORAD_CAT_ID":"47365","DECAY_DATE":null,"OBJECT_NAME":"STARLINK-2080","OBJECT_ID":"2021-005S","CLASSIFICATION_TYPE":"U","MEAN_MOTION":"15.73217300","FILE":"3199758","REV_AT_EPOCH":"4531","MEAN_MOTION_DOT":"0.00031695","REF_FRAME":"TEME","INCLINATION":"53.0492","SEMIMAJOR_AXIS":"6727.846","OBJECT_TYPE":"PAYLOAD","EPOCH":"2021-11-03T07:22:55.274016","ELEMENT_SET_NO":"999","PERIAPSIS":"346.205","MEAN_MOTION_DDOT":"0.0000000000000","ECCENTRICITY":"0.00052110","LAUNCH_DATE":"2021-01-20","MEAN_ANOMALY":"68.7073"},{"FILE":"3200165","MEAN_MOTION":"15.06404541","DECAY_DATE":null,"OBJECT_NAME":"STARLINK-2081","CLASSIFICATION_TYPE":"U","OBJECT_ID":"2021-005T","ARG_OF_PERICENTER":"77.3924","BSTAR":"0.00026290000000","NORAD_CAT_ID":"47366","MEAN_ELEMENT_THEORY":"SGP4","COUNTRY_CODE":"US","CENTER_NAME":"EARTH","TIME_SYSTEM":"UTC","TLE_LINE1":"1 47366U 21005T   21307.57864842  .00003637  00000-0  26290-3 0  9992","APOAPSIS":"548.065","RA_OF_ASC_NODE":"346.4353","RCS_SIZE":"LARGE","TLE_LINE2":"2 47366  53.0564 346.4353 0001249  77.3924 282.7204 15.06404541 43829","GP_ID":"188858619","SITE":"AFETR","EPHEMERIS_TYPE":"0","PERIOD":"95.592","LAUNCH_DATE":"2021-01-20","MEAN_ANOMALY":"282.7204","ECCENTRICITY":"0.00012490","PERIAPSIS":"546.335","MEAN_MOTION_DDOT":"0.0000000000000","EPOCH":"2021-11-03T13:53:15.223488","ELEMENT_SET_NO":"999","INCLINATION":"53.0564","SEMIMAJOR_AXIS":"6925.335","OBJECT_TYPE":"PAYLOAD","REF_FRAME":"TEME","MEAN_MOTION_DOT":"0.00003637","REV_AT_EPOCH":"4382"},{"MEAN_MOTION_DDOT":"0.0000000000000","PERIAPSIS":"546.243","ECCENTRICITY":"0.00014280","MEAN_ANOMALY":"271.6338","LAUNCH_DATE":"2021-01-20","REV_AT_EPOCH":"4380","MEAN_MOTION_DOT":"-0.00001604","REF_FRAME":"TEME","INCLINATION":"53.0569","OBJECT_TYPE":"PAYLOAD","SEMIMAJOR_AXIS":"6925.367","ELEMENT_SET_NO":"999","EPOCH":"2021-11-03T09:43:47.582976","MEAN_ELEMENT_THEORY":"SGP4","COUNTRY_CODE":"US","CENTER_NAME":"EARTH","ARG_OF_PERICENTER":"88.4814","BSTAR":"-0.00008879600000","NORAD_CAT_ID":"47367","OBJECT_ID":"2021-005U","CLASSIFICATION_TYPE":"U","DECAY_DATE":null,"OBJECT_NAME":"STARLINK-2082","MEAN_MOTION":"15.06394069","FILE":"3199758","PERIOD":"95.593","EPHEMERIS_TYPE":"0","TLE_LINE2":"2 47367  53.0569 347.2279 0001428  88.4814 271.6338 15.06394069 43807","RCS_SIZE":"LARGE","GP_ID":"188828117","SITE":"AFETR","RA_OF_ASC_NODE":"347.2279","TLE_LINE1":"1 47367U 21005U   21307.40541184 -.00001604  00000-0 -88796-4 0  9990","APOAPSIS":"548.221","TIME_SYSTEM":"UTC"},{"REF_FRAME":"TEME","MEAN_MOTION_DOT":"-0.00000430","REV_AT_EPOCH":"4383","ELEMENT_SET_NO":"999","EPOCH":"2021-11-03T14:19:47.284320","INCLINATION":"53.0550","OBJECT_TYPE":"PAYLOAD","SEMIMAJOR_AXIS":"6925.357","MEAN_MOTION_DDOT":"0.0000000000000","PERIAPSIS":"546.304","MEAN_ANOMALY":"286.5034","LAUNCH_DATE":"2021-01-20","ECCENTRICITY":"0.00013260","RA_OF_ASC_NODE":"346.3580","TLE_LINE1":"1 47368U 21005V   21307.59707505 -.00000430  00000-0 -99444-5 0  9991","APOAPSIS":"548.140","PERIOD":"95.592","EPHEMERIS_TYPE":"0","TLE_LINE2":"2 47368  53.0550 346.3580 0001326  73.6101 286.5034 15.06397212 43839","RCS_SIZE":"LARGE","SITE":"AFETR","GP_ID":"188859120","TIME_SYSTEM":"UTC","BSTAR":"-0.00000994440000","ARG_OF_PERICENTER":"73.6101","NORAD_CAT_ID":"47368","CENTER_NAME":"EARTH","COUNTRY_CODE":"US","MEAN_ELEMENT_THEORY":"SGP4","MEAN_MOTION":"15.06397212","FILE":"3200165","OBJECT_ID":"2021-005V","CLASSIFICATION_TYPE":"U","DECAY_DATE":null,"OBJECT_NAME":"STARLINK-2084"},{"TIME_SYSTEM":"UTC","APOAPSIS":"548.226","TLE_LINE1":"1 47369U 21005W   21307.53626103  .00000548  00000-0  55681-4 0  9992","RA_OF_ASC_NODE":"326.6355","SITE":"AFETR","GP_ID":"188827616","TLE_LINE2":"2 47369  53.0549 326.6355 0001409  74.1089 286.0056 15.06388037 44107","RCS_SIZE":"LARGE","PERIOD":"95.593","EPHEMERIS_TYPE":"0","MEAN_MOTION":"15.06388037","FILE":"3199758","OBJECT_NAME":"STARLINK-2085","DECAY_DATE":null,"OBJECT_ID":"2021-005W","CLASSIFICATION_TYPE":"U","NORAD_CAT_ID":"47369","BSTAR":"0.00005568100000","ARG_OF_PERICENTER":"74.1089","COUNTRY_CODE":"US","MEAN_ELEMENT_THEORY":"SGP4","CENTER_NAME":"EARTH","EPOCH":"2021-11-03T12:52:12.952992","ELEMENT_SET_NO":"999","OBJECT_TYPE":"PAYLOAD","SEMIMAJOR_AXIS":"6925.385","INCLINATION":"53.0549","MEAN_MOTION_DOT":"0.00000548","REF_FRAME":"TEME","REV_AT_EPOCH":"4410","LAUNCH_DATE":"2021-01-20","MEAN_ANOMALY":"286.0056","ECCENTRICITY":"0.00014090","PERIAPSIS":"546.274","MEAN_MOTION_DDOT":"0.0000000000000"},{"TIME_SYSTEM":"UTC","TLE_LINE1":"1 47370U 21005X   21307.69291708 -.00001629  00000-0 -90482-4 0  9991","APOAPSIS":"548.420","RA_OF_ASC_NODE":"305.9059","TLE_LINE2":"2 47370  53.0610 305.9059 0001733  61.5156 298.6007 15.06397839 44413","RCS_SIZE":"LARGE","SITE":"AFETR","GP_ID":"188858119","PERIOD":"95.592","EPHEMERIS_TYPE":"0","FILE":"3200165","MEAN_MOTION":"15.06397839","DECAY_DATE":null,"OBJECT_NAME":"STARLINK-2086","CLASSIFICATION_TYPE":"U","OBJECT_ID":"2021-005X","ARG_OF_PERICENTER":"61.5156","BSTAR":"-0.00009048200000","NORAD_CAT_ID":"47370","MEAN_ELEMENT_THEORY":"SGP4","COUNTRY_CODE":"US","CENTER_NAME":"EARTH","EPOCH":"2021-11-03T16:37:48.035712","ELEMENT_SET_NO":"999","INCLINATION":"53.0610","OBJECT_TYPE":"PAYLOAD","SEMIMAJOR_AXIS":"6925.355","MEAN_MOTION_DOT":"-0.00001629","REF_FRAME":"TEME","REV_AT_EPOCH":"4441","LAUNCH_DATE":"2021-01-20","MEAN_ANOMALY":"298.6007","ECCENTRICITY":"0.00017330","PERIAPSIS":"546.020","MEAN_MOTION_DDOT":"0.0000000000000"},{"ECCENTRICITY":"0.00012490","LAUNCH_DATE":"2021-01-20","MEAN_ANOMALY":"280.3595","PERIAPSIS":"546.387","MEAN_MOTION_DDOT":"0.0000000000000","INCLINATION":"53.0555","OBJECT_TYPE":"PAYLOAD","SEMIMAJOR_AXIS":"6925.387","EPOCH":"2021-11-03T11:29:57.156000","ELEMENT_SET_NO":"999","REV_AT_EPOCH":"4381","REF_FRAME":"TEME","MEAN_MOTION_DOT":"-0.00000428","DECAY_DATE":null,"OBJECT_NAME":"STARLINK-2088","CLASSIFICATION_TYPE":"U","OBJECT_ID":"2021-005Y","MEAN_MOTION":"15.06387521","FILE":"3199758","COUNTRY_CODE":"US","MEAN_ELEMENT_THEORY":"SGP4","CENTER_NAME":"EARTH","ARG_OF_PERICENTER":"79.7535","BSTAR":"-0.00000982060000","NORAD_CAT_ID":"47371","TIME_SYSTEM":"UTC","TLE_LINE2":"2 47371  53.0555 346.8851 0001249  79.7535 280.3595 15.06387521 43810","RCS_SIZE":"LARGE","SITE":"AFETR","GP_ID":"188828617","EPHEMERIS_TYPE":"0","PERIOD":"95.593","APOAPSIS":"548.117","TLE_LINE1":"1 47371U 21005Y   21307.47913375 -.00000428  00000-0 -98206-5 0  9998","RA_OF_ASC_NODE":"346.8851"},{"TLE_LINE1":"1 47372U 21005Z   21307.57632030  .00000077  00000-0  24041-4 0  9999","APOAPSIS":"548.244","RA_OF_ASC_NODE":"341.4355","TLE_LINE2":"2 47372  53.0557 341.4355 0001467  72.5147 287.6002 15.06395207 43896","RCS_SIZE":"LARGE","GP_ID":"188859621","SITE":"AFETR","EPHEMERIS_TYPE":"0","PERIOD":"95.592","TIME_SYSTEM":"UTC","BSTAR":"0.00002404100000","ARG_OF_PERICENTER":"72.5147","NORAD_CAT_ID":"47372","COUNTRY_CODE":"US","CENTER_NAME":"EARTH","MEAN_ELEMENT_THEORY":"SGP4","MEAN_MOTION":"15.06395207","FILE":"3200165","OBJECT_NAME":"STARLINK-2089","DECAY_DATE":null,"CLASSIFICATION_TYPE":"U","OBJECT_ID":"2021-005Z","MEAN_MOTION_DOT":"0.00000077","REF_FRAME":"TEME","REV_AT_EPOCH":"4389","EPOCH":"2021-11-03T13:49:54.073920","ELEMENT_SET_NO":"999","INCLINATION":"53.0557","OBJECT_TYPE":"PAYLOAD","SEMIMAJOR_AXIS":"6925.363","PERIAPSIS":"546.212","MEAN_MOTION_DDOT":"0.0000000000000","LAUNCH_DATE":"2021-01-20","MEAN_ANOMALY":"287.6002","ECCENTRICITY":"0.00014670"},{"FILE":"3200165","MEAN_MOTION":"15.06389640","DECAY_DATE":null,"OBJECT_NAME":"STARLINK-2092","CLASSIFICATION_TYPE":"U","OBJECT_ID":"2021-005AA","ARG_OF_PERICENTER":"77.2222","BSTAR":"-0.00001718000000","NORAD_CAT_ID":"47373","MEAN_ELEMENT_THEORY":"SGP4","COUNTRY_CODE":"US","CENTER_NAME":"EARTH","TIME_SYSTEM":"UTC","APOAPSIS":"548.093","TLE_LINE1":"1 47373U 21005AA  21307.60814170 -.00000537  00000-0 -17180-4 0  9990","RA_OF_ASC_NODE":"346.2998","TLE_LINE2":"2 47373  53.0545 346.2998 0001224  77.2222 282.8904 15.06389640 43833","RCS_SIZE":"LARGE","SITE":"AFETR","GP_ID":"188859872","EPHEMERIS_TYPE":"0","PERIOD":"95.593","LAUNCH_DATE":"2021-01-20","MEAN_ANOMALY":"282.8904","ECCENTRICITY":"0.00012240","PERIAPSIS":"546.398","MEAN_MOTION_DDOT":"0.0000000000000","EPOCH":"2021-11-03T14:35:43.442880","ELEMENT_SET_NO":"999","INCLINATION":"53.0545","OBJECT_TYPE":"PAYLOAD","SEMIMAJOR_AXIS":"6925.380","MEAN_MOTION_DOT":"-0.00000537","REF_FRAME":"TEME","REV_AT_EPOCH":"4383"}];
